{
  "links" : {
    "next" : "https://api.nasa.gov/neo/rest/v1/feed?start_date=2013-11-09&end_date=2013-11-09&detailed=true&api_key=t0TVs3DtDT2H8Oy2Zy8m2eVrNsAVKAexjcZXUckd",
    "prev" : "https://api.nasa.gov/neo/rest/v1/feed?start_date=2013-11-07&end_date=2013-11-07&detailed=true&api_key=t0TVs3DtDT2H8Oy2Zy8m2eVrNsAVKAexjcZXUckd",
    "self" : "https://api.nasa.gov/neo/rest/v1/feed?start_date=2013-11-08&end_date=2013-11-08&detailed=true&api_key=t0TVs3DtDT2H8Oy2Zy8m2eVrNsAVKAexjcZXUckd"
  },
  "element_count" : 11,
  "near_earth_objects" : {
    "2013-11-08" : [ {
      "links" : {
        "self" : "https://api.nasa.gov/neo/rest/v1/neo/3653698?api_key=t0TVs3DtDT2H8Oy2Zy8m2eVrNsAVKAexjcZXUckd"
      },
      "neo_reference_id" : "3653698",
      "name" : "(2013 VW13)",
      "nasa_jpl_url" : "http://ssd.jpl.nasa.gov/sbdb.cgi?sstr=3653698",
      "absolute_magnitude_h" : 26.2,
      "estimated_diameter" : {
        "kilometers" : {
          "estimated_diameter_min" : 0.0152951935,
          "estimated_diameter_max" : 0.0342010925
        },
        "meters" : {
          "estimated_diameter_min" : 15.2951935344,
          "estimated_diameter_max" : 34.201092472
        },
        "miles" : {
          "estimated_diameter_min" : 0.0095039897,
          "estimated_diameter_max" : 0.021251567
        },
        "feet" : {
          "estimated_diameter_min" : 50.1810827555,
          "estimated_diameter_max" : 112.2083122258
        }
      },
      "is_potentially_hazardous_asteroid" : false,
      "close_approach_data" : [ {
        "close_approach_date" : "2013-11-08",
        "epoch_date_close_approach" : 1383897600000,
        "relative_velocity" : {
          "kilometers_per_second" : "16.6100065902",
          "kilometers_per_hour" : "59796.023724832",
          "miles_per_hour" : "37154.923741688"
        },
        "miss_distance" : {
          "astronomical" : "0.0085694678",
          "lunar" : "3.333523035",
          "kilometers" : "1281974.125",
          "miles" : "796581.8125"
        },
        "orbiting_body" : "Earth"
      } ],
      "orbital_data" : {
        "orbit_id" : "7",
        "orbit_determination_date" : "2017-04-06 08:43:38",
        "orbit_uncertainty" : "7",
        "minimum_orbit_intersection" : ".00202889",
        "jupiter_tisserand_invariant" : "4.038",
        "epoch_osculation" : "2458000.5",
        "eccentricity" : ".5740538833194779",
        "semi_major_axis" : "1.672610366779033",
        "inclination" : "3.529200945506969",
        "ascending_node_longitude" : "227.6626330374792",
        "orbital_period" : "790.1155392350665",
        "perihelion_distance" : ".7124418904491128",
        "perihelion_argument" : "101.4313021862459",
        "aphelion_distance" : "2.632778843108953",
        "perihelion_time" : "2458138.130180007880",
        "mean_anomaly" : "297.2916208548381",
        "mean_motion" : ".4556295657069677",
        "equinox" : "J2000"
      }
    }, {
      "links" : {
        "self" : "https://api.nasa.gov/neo/rest/v1/neo/3744813?api_key=t0TVs3DtDT2H8Oy2Zy8m2eVrNsAVKAexjcZXUckd"
      },
      "neo_reference_id" : "3744813",
      "name" : "(2016 DE1)",
      "nasa_jpl_url" : "http://ssd.jpl.nasa.gov/sbdb.cgi?sstr=3744813",
      "absolute_magnitude_h" : 25.3,
      "estimated_diameter" : {
        "kilometers" : {
          "estimated_diameter_min" : 0.0231502122,
          "estimated_diameter_max" : 0.0517654482
        },
        "meters" : {
          "estimated_diameter_min" : 23.150212221,
          "estimated_diameter_max" : 51.7654482198
        },
        "miles" : {
          "estimated_diameter_min" : 0.0143848705,
          "estimated_diameter_max" : 0.0321655483
        },
        "feet" : {
          "estimated_diameter_min" : 75.9521422633,
          "estimated_diameter_max" : 169.8341531374
        }
      },
      "is_potentially_hazardous_asteroid" : false,
      "close_approach_data" : [ {
        "close_approach_date" : "2013-11-08",
        "epoch_date_close_approach" : 1383897600000,
        "relative_velocity" : {
          "kilometers_per_second" : "19.7219379108",
          "kilometers_per_hour" : "70998.9764787616",
          "miles_per_hour" : "44116.0029125949"
        },
        "miss_distance" : {
          "astronomical" : "0.4056828768",
          "lunar" : "157.8106384277",
          "kilometers" : "60689296",
          "miles" : "37710580"
        },
        "orbiting_body" : "Earth"
      } ],
      "orbital_data" : {
        "orbit_id" : "6",
        "orbit_determination_date" : "2017-04-06 08:28:04",
        "orbit_uncertainty" : "7",
        "minimum_orbit_intersection" : ".00604189",
        "jupiter_tisserand_invariant" : "3.986",
        "epoch_osculation" : "2458000.5",
        "eccentricity" : ".6542409131950071",
        "semi_major_axis" : "1.661974614164841",
        "inclination" : ".4105458964332089",
        "ascending_node_longitude" : "90.76581750952047",
        "orbital_period" : "782.5912821472348",
        "perihelion_distance" : ".574642824886716",
        "perihelion_argument" : "331.6208586480387",
        "aphelion_distance" : "2.749306403442967",
        "perihelion_time" : "2458177.769003087581",
        "mean_anomaly" : "278.4544441430121",
        "mean_motion" : ".4600102354989823",
        "equinox" : "J2000"
      }
    }, {
      "links" : {
        "self" : "https://api.nasa.gov/neo/rest/v1/neo/2476093?api_key=t0TVs3DtDT2H8Oy2Zy8m2eVrNsAVKAexjcZXUckd"
      },
      "neo_reference_id" : "2476093",
      "name" : "476093 (2007 TC66)",
      "nasa_jpl_url" : "http://ssd.jpl.nasa.gov/sbdb.cgi?sstr=2476093",
      "absolute_magnitude_h" : 19.5,
      "estimated_diameter" : {
        "kilometers" : {
          "estimated_diameter_min" : 0.3346223745,
          "estimated_diameter_max" : 0.7482383761
        },
        "meters" : {
          "estimated_diameter_min" : 334.6223744549,
          "estimated_diameter_max" : 748.2383760735
        },
        "miles" : {
          "estimated_diameter_min" : 0.2079246394,
          "estimated_diameter_max" : 0.464933628
        },
        "feet" : {
          "estimated_diameter_min" : 1097.8424710066,
          "estimated_diameter_max" : 2454.8503937571
        }
      },
      "is_potentially_hazardous_asteroid" : false,
      "close_approach_data" : [ {
        "close_approach_date" : "2013-11-08",
        "epoch_date_close_approach" : 1383897600000,
        "relative_velocity" : {
          "kilometers_per_second" : "24.1832465496",
          "kilometers_per_hour" : "87059.6875787242",
          "miles_per_hour" : "54095.5042069022"
        },
        "miss_distance" : {
          "astronomical" : "0.1816350107",
          "lunar" : "70.6560211182",
          "kilometers" : "27172210",
          "miles" : "16884028"
        },
        "orbiting_body" : "Earth"
      } ],
      "orbital_data" : {
        "orbit_id" : "27",
        "orbit_determination_date" : "2017-04-06 09:19:03",
        "orbit_uncertainty" : "0",
        "minimum_orbit_intersection" : ".139453",
        "jupiter_tisserand_invariant" : "3.388",
        "epoch_osculation" : "2458000.5",
        "eccentricity" : ".7103448230432301",
        "semi_major_axis" : "2.068476103723682",
        "inclination" : "10.59123679955619",
        "ascending_node_longitude" : "102.4941028294289",
        "orbital_period" : "1086.611229528784",
        "perihelion_distance" : ".5991448118549331",
        "perihelion_argument" : "34.91094161331764",
        "aphelion_distance" : "3.537807395592431",
        "perihelion_time" : "2457735.822437282956",
        "mean_anomaly" : "87.68906485482989",
        "mean_motion" : ".3313052453508292",
        "equinox" : "J2000"
      }
    } ]
  }
}